[Satellite]
VERSION=1.1
NAME=CSIM
NICKNAME=CSIM
TLE1=1 43793U 18099AM  22335.26628920  .00005087  00000-0  41346-3 0  9994
TLE2=2 43793  97.6080  39.8693 0015683  69.1286 291.1615 14.99929594217872
STATUS=0
